{
  "type": "FeatureCollection",
  "features": [
    {
      "type": "Feature",
      "properties": {
        "norad_id": 43262,
        "name": "GAOFEN-1 04",
        "group": "resource",
        "lat": 81.03507207063407,
        "lon": -56.42382271902307,
        "alt_km": 632.8592401508731,
        "timestamp": "2025-12-27T12:55:14.144646+00:00",
        "meta_object_name": "GAOFEN-1 04",
        "meta_object_id": "2018-031D",
        "meta_epoch": "2025-12-27T07:37:02.815680",
        "meta_mean_motion": 14.76435239,
        "meta_eccentricity": 4.684e-05,
        "meta_inclination": 98.0783,
        "meta_ra_of_asc_node": 59.1566,
        "meta_arg_of_pericenter": 71.7929,
        "meta_mean_anomaly": 288.3332,
        "meta_ephemeris_type": 0,
        "meta_classification_type": "U",
        "meta_norad_cat_id": 43262,
        "meta_element_set_no": 999,
        "meta_rev_at_epoch": 41732,
        "meta_bstar": 0.00013876481,
        "meta_mean_motion_dot": 9.13e-06,
        "meta_mean_motion_ddot": 0,
        "tle_line1": "1 43262U 18031D   25361.31739370  .00000913  00000+0  13876-3 0  9990",
        "tle_line2": "2 43262  98.0783  59.1566 0000468  71.7929 288.3332 14.76435239417329"
      },
      "geometry": {
        "type": "Point",
        "coordinates": [
          -56.42382271902307,
          81.03507207063407
        ]
      }
    },
    {
      "type": "Feature",
      "properties": {
        "norad_id": 43437,
        "name": "SENTINEL-3B",
        "group": "resource",
        "lat": 42.41374385973584,
        "lon": -105.5198001898466,
        "alt_km": 798.4340651603043,
        "timestamp": "2025-12-27T12:55:14.144656+00:00",
        "meta_object_name": "SENTINEL-3B",
        "meta_object_id": "2018-039A",
        "meta_epoch": "2025-12-27T03:51:56.373696",
        "meta_mean_motion": 14.26739648,
        "meta_eccentricity": 0.00015485,
        "meta_inclination": 98.6248,
        "meta_ra_of_asc_node": 66.1383,
        "meta_arg_of_pericenter": 87.2146,
        "meta_mean_anomaly": 272.9212,
        "meta_ephemeris_type": 0,
        "meta_classification_type": "U",
        "meta_norad_cat_id": 43437,
        "meta_element_set_no": 999,
        "meta_rev_at_epoch": 39959,
        "meta_bstar": 8.1690415e-05,
        "meta_mean_motion_dot": 1.54e-06,
        "meta_mean_motion_ddot": 0,
        "tle_line1": "1 43437U 18039A   25361.16106914  .00000154  00000+0  81690-4 0  9994",
        "tle_line2": "2 43437  98.6248  66.1383 0001548  87.2146 272.9212 14.26739648399593"
      },
      "geometry": {
        "type": "Point",
        "coordinates": [
          -105.5198001898466,
          42.41374385973584
        ]
      }
    },
    {
      "type": "Feature",
      "properties": {
        "norad_id": 43461,
        "name": "GAOFEN-5 01",
        "group": "resource",
        "lat": 61.12646434374485,
        "lon": 160.37585779226333,
        "alt_km": 685.9570789707986,
        "timestamp": "2025-12-27T12:55:14.144667+00:00",
        "meta_object_name": "GAOFEN-5 01",
        "meta_object_id": "2018-043A",
        "meta_epoch": "2025-12-26T21:35:04.985664",
        "meta_mean_motion": 14.6042519,
        "meta_eccentricity": 5.96e-05,
        "meta_inclination": 98.4347,
        "meta_ra_of_asc_node": 324.1154,
        "meta_arg_of_pericenter": 225.5814,
        "meta_mean_anomaly": 134.5337,
        "meta_ephemeris_type": 0,
        "meta_classification_type": "U",
        "meta_norad_cat_id": 43461,
        "meta_element_set_no": 999,
        "meta_rev_at_epoch": 40654,
        "meta_bstar": 0.00012641,
        "meta_mean_motion_dot": 5.63e-06,
        "meta_mean_motion_ddot": 0,
        "tle_line1": "1 43461U 18043A   25360.89936326  .00000563  00000+0  12641-3 0  9996",
        "tle_line2": "2 43461  98.4347 324.1154 0000596 225.5814 134.5337 14.60425190406549"
      },
      "geometry": {
        "type": "Point",
        "coordinates": [
          160.37585779226333,
          61.12646434374485
        ]
      }
    },
    {
      "type": "Feature",
      "properties": {
        "norad_id": 43484,
        "name": "GAOFEN-6",
        "group": "resource",
        "lat": -70.50314912933328,
        "lon": -137.47326741231007,
        "alt_km": 652.6603281801836,
        "timestamp": "2025-12-27T12:55:14.144677+00:00",
        "meta_object_name": "GAOFEN-6",
        "meta_object_id": "2018-048A",
        "meta_epoch": "2025-12-27T06:54:11.460096",
        "meta_mean_motion": 14.76593379,
        "meta_eccentricity": 0.00123752,
        "meta_inclination": 97.8008,
        "meta_ra_of_asc_node": 65.0646,
        "meta_arg_of_pericenter": 20.277,
        "meta_mean_anomaly": 339.893,
        "meta_ephemeris_type": 0,
        "meta_classification_type": "U",
        "meta_norad_cat_id": 43484,
        "meta_element_set_no": 999,
        "meta_rev_at_epoch": 40802,
        "meta_bstar": 0.00019254689,
        "meta_mean_motion_dot": 1.296e-05,
        "meta_mean_motion_ddot": 0,
        "tle_line1": "1 43484U 18048A   25361.28763264  .00001296  00000+0  19255-3 0  9991",
        "tle_line2": "2 43484  97.8008  65.0646 0012375  20.2770 339.8930 14.76593379408023"
      },
      "geometry": {
        "type": "Point",
        "coordinates": [
          -137.47326741231007,
          -70.50314912933328
        ]
      }
    },
    {
      "type": "Feature",
      "properties": {
        "norad_id": 43585,
        "name": "GAOFEN-11 01",
        "group": "resource",
        "lat": -26.802635532751147,
        "lon": 67.98889250472953,
        "alt_km": 423.93232829253884,
        "timestamp": "2025-12-27T12:55:14.144688+00:00",
        "meta_object_name": "GAOFEN-11 01",
        "meta_object_id": "2018-063A",
        "meta_epoch": "2025-12-27T06:50:16.673280",
        "meta_mean_motion": 15.49638894,
        "meta_eccentricity": 0.0003932,
        "meta_inclination": 97.1532,
        "meta_ra_of_asc_node": 64.0998,
        "meta_arg_of_pericenter": 236.9328,
        "meta_mean_anomaly": 123.1546,
        "meta_ephemeris_type": 0,
        "meta_classification_type": "U",
        "meta_norad_cat_id": 43585,
        "meta_element_set_no": 999,
        "meta_rev_at_epoch": 41367,
        "meta_bstar": 0.00038102547,
        "meta_mean_motion_dot": 0.00021024,
        "meta_mean_motion_ddot": 0,
        "tle_line1": "1 43585U 18063A   25361.28491520  .00021024  00000+0  38103-3 0  9997",
        "tle_line2": "2 43585  97.1532  64.0998 0003932 236.9328 123.1546 15.49638894413670"
      },
      "geometry": {
        "type": "Point",
        "coordinates": [
          67.98889250472953,
          -26.802635532751147
        ]
      }
    },
    {
      "type": "Feature",
      "properties": {
        "norad_id": 43613,
        "name": "ICESAT-2",
        "group": "resource",
        "lat": 19.631524550792182,
        "lon": -115.98465542898685,
        "alt_km": 481.11668207355524,
        "timestamp": "2025-12-27T12:55:14.144698+00:00",
        "meta_object_name": "ICESAT-2",
        "meta_object_id": "2018-070A",
        "meta_epoch": "2025-12-27T06:32:56.407776",
        "meta_mean_motion": 15.28293292,
        "meta_eccentricity": 0.00032682,
        "meta_inclination": 92.0037,
        "meta_ra_of_asc_node": 244.6593,
        "meta_arg_of_pericenter": 108.176,
        "meta_mean_anomaly": 251.9846,
        "meta_ephemeris_type": 0,
        "meta_classification_type": "U",
        "meta_norad_cat_id": 43613,
        "meta_element_set_no": 999,
        "meta_rev_at_epoch": 40620,
        "meta_bstar": 0.00047686963,
        "meta_mean_motion_dot": 0.00013145,
        "meta_mean_motion_ddot": 0,
        "tle_line1": "1 43613U 18070A   25361.27287509  .00013145  00000+0  47687-3 0  9998",
        "tle_line2": "2 43613  92.0037 244.6593 0003268 108.1760 251.9846 15.28293292406205"
      },
      "geometry": {
        "type": "Point",
        "coordinates": [
          -115.98465542898685,
          19.631524550792182
        ]
      }
    },
    {
      "type": "Feature",
      "properties": {
        "norad_id": 43719,
        "name": "HYSIS",
        "group": "resource",
        "lat": 38.14585988251598,
        "lon": 58.094908102319174,
        "alt_km": 630.1778979160244,
        "timestamp": "2025-12-27T12:55:14.144708+00:00",
        "meta_object_name": "HYSIS",
        "meta_object_id": "2018-096A",
        "meta_epoch": "2025-12-27T07:52:28.278048",
        "meta_mean_motion": 14.78683788,
        "meta_eccentricity": 7.416e-05,
        "meta_inclination": 98.0074,
        "meta_ra_of_asc_node": 64.2332,
        "meta_arg_of_pericenter": 54.485,
        "meta_mean_anomaly": 305.643,
        "meta_ephemeris_type": 0,
        "meta_classification_type": "U",
        "meta_norad_cat_id": 43719,
        "meta_element_set_no": 999,
        "meta_rev_at_epoch": 38202,
        "meta_bstar": 0.00018238767,
        "meta_mean_motion_dot": 1.285e-05,
        "meta_mean_motion_ddot": 0,
        "tle_line1": "1 43719U 18096A   25361.32810507  .00001285  00000+0  18239-3 0  9992",
        "tle_line2": "2 43719  98.0074  64.2332 0000741  54.4850 305.6430 14.78683788382028"
      },
      "geometry": {
        "type": "Point",
        "coordinates": [
          58.094908102319174,
          38.14585988251598
        ]
      }
    }
  ]
}